#aV2006  8  6  0  0   .00000000      96 DD+AD WGS84 FIT  NGA
## 1387       .00000000   900.00000000 53953  .0000000000000
+   29     1  2  3  4  5  6  7  8  9 10 11 13 14 15 16 17 18
+         19 20 21 22 23 24 25 26 27 28 29 30  0  0  0  0  0
+          0  0  0  0  0  0  0  0  0  0  0  0  0  0  0  0  0
+          0  0  0  0  0  0  0  0  0  0  0  0  0  0  0  0  0
+          0  0  0  0  0  0  0  0  0  0  0  0  0  0  0  0  0
++         0  0  0  0  0  0  0  0  0  0  0  0  0  0  0  0  0
++         0  0  0  0  0  0  0  0  0  0  0  0  0  0  0  0  0
++         0  0  0  0  0  0  0  0  0  0  0  0  0  0  0  0  0
++         0  0  0  0  0  0  0  0  0  0  0  0  0  0  0  0  0
++         0  0  0  0  0  0  0  0  0  0  0  0  0  0  0  0  0
%c cc cc ccc ccc cccc cccc cccc cccc ccccc ccccc ccccc ccccc
%c cc cc ccc ccc cccc cccc cccc cccc ccccc ccccc ccccc ccccc
%f  0.0000000  0.000000000  0.00000000000  0.000000000000000
%f  0.0000000  0.000000000  0.00000000000  0.000000000000000
%i    0    0    0    0      0      0      0      0         0
%i    0    0    0    0      0      0      0      0         0
/*      NGA, ST. LOUIS,MO.                                  
/*   EPHEMERIS COMPUTED FROM  3 DAYS OF DATA                
/* CCCCCCCCCCCCCCCCCCCCCCCCCCCCCCCCCCCCCCCCCCCCCCCCCCCCCCCCC
/* CCCCCCCCCCCCCCCCCCCCCCCCCCCCCCCCCCCCCCCCCCCCCCCCCCCCCCCCC
*  2006  8  6 22 45   .00000000                                                 
P  1  13972.248514  -5416.456600 -21728.875551     69.509624                    
V  1   2345.601146  27891.259097  -5452.199746       .019821                    
P  2 -23089.176520  11189.970070  -6640.114551     21.472262                    
V  2   4680.113367  -7423.666788 -30110.366180       .040456                    
P  3  13218.385346 -10785.157161  20117.058727    182.999717                    
V  3   6641.834091  25316.563370   9445.757448      -.219643                    
P  4 -21389.461446   1169.385705 -15959.642516    288.881633                    
V  4  15254.299209 -13217.080951 -21115.546150       .068294                    
P  5  -3112.895388  15576.447663 -21503.332570    280.642599                    
V  5 -25509.679459  -8516.685758  -2334.481360       .249298                    
P  6   7505.937616  24954.744587   5147.223653    597.302388                    
V  6  -2652.954820   6788.307169 -30257.337438       .027845                    
P  7  16273.533209   6988.755936  20107.899048    537.545693                    
V  7   2965.634620  24766.351183 -11307.694172      -.022439                    
P  8 -15854.283298  -6030.352694  20401.483052    -75.013837                    
V  8  21236.682908 -15153.133528  11536.234659      -.013789                    
P  9 -12616.355019  20428.330072 -11618.109963     30.921059                    
V  9 -12450.555098   6827.616492  27102.039088       .015128                    
P 10 -19675.058136   3965.773352  17453.926070     87.722318                    
V 10 -19589.797209 -10537.390453 -19280.622694       .006098                    
P 11   8941.040870 -22061.117593 -11588.324004    343.523406                    
V 11  13466.451617  -7574.229668  25217.892053       .020932                    
P 13  -6103.016288 -25134.801478   6054.308421     83.404774                    
V 13   1055.651600  -7895.807884 -31180.482815       .031129                    
P 14  13927.233828  11903.304990 -19188.343316     -8.195656                    
V 14   1422.594842  24396.906002  16047.765307       .008406                    
P 15  16617.981654   6076.066703  19791.190317    658.453232                    
V 15 -20916.496485  14330.711534  12653.133956       .069649                    
P 16  22400.771318   -935.862103  14415.411623     62.540855                    
V 16  15715.199213   9213.818197 -23844.347229       .030073                    
P 17 -14397.803012 -12627.649326 -18450.219795     99.130186                    
V 17  -1116.501459 -23406.324713  16793.850562      -.008434                    
P 18  16159.514580  17480.814174  12219.251949   -245.510010                    
V 18 -14630.795716  -4749.698476  26067.407169      -.011180                    
P 19   8947.322972 -20635.096918  14186.307199      5.796153                    
V 19   3130.580069  17726.309857  24055.403525       .027334                    
P 20  -1591.018290 -16587.346333 -20779.866970    -23.483996                    
V 20  24429.776445   9462.274061  -9439.834349       .003226                    
P 21   9236.943348  12643.019879  21534.972248     45.974661                    
V 21 -22608.824477  15177.753910    246.307553       .020719                    
P 22  23740.893214  11936.277319    111.245358    123.243372                    
V 22  -1295.235965   2694.651906  31609.508980       .036062                    
P 23    915.686176 -25876.639321  -5572.160095    137.871152                    
V 23   3392.075274   6641.579284 -30988.888252      -.001729                    
P 24 -16521.148066  -5762.372060 -19832.099324     26.480207                    
V 24  20792.742518 -15000.959945 -12540.691308       .029435                    
P 25  22079.886783  -8466.625925 -11835.757375    278.480657                    
V 25  -9972.442826  12270.489246 -26355.555977       .170176                    
P 26  -8728.755042  18936.659705  15692.526741   -206.607689                    
V 26  -3539.089493 -20624.030928  22906.154833      -.137481                    
P 27  -7716.958154 -13658.634300  22017.449227     61.629077                    
V 27  20640.536989 -16711.791902  -3536.392056       .018899                    
P 28 -22629.784362 -13698.089902   4260.021637     21.501096                    
V 28   5556.047225   -127.017053  30928.092135      -.007901                    
P 29 -10272.687494  16304.752708  18373.118738    632.913983                    
V 29  -3927.177784 -22603.766117  18370.356319       .013091                    
P 30  11257.583175  17522.981558 -16838.904169      6.048105                    
V 30 -20088.824256  -5855.080423 -19748.573673       .012735                    
EOF
